TDRS 3                  
1 19548U 88091B   26177.79854181 -.00000295  00000+0  00000+0 0  9994
2 19548  12.5942 340.9396 0037676 356.8926 175.7234  1.00270713125484
FLTSATCOM 8 (USA 46)    
1 20253U 89077A   26177.90430617 -.00000364  00000+0  00000+0 0  9998
2 20253  12.4187 351.1047 0003919  59.9087 315.3372  1.00272471260666
SKYNET 4C               
1 20776U 90079A   26162.20198486  .00000132  00000+0  00000+0 0  9996
2 20776  13.3424 349.8525 0002400  96.2313 279.5534  1.00274127130831
TDRS 5                  
1 21639U 91054B   26177.70373550  .00000085  00000+0  00000+0 0  9994
2 21639  14.0697 353.7092 0006275 264.1146 102.7887  1.00267874127810
TDRS 6                  
1 22314U 93003B   26178.17888272 -.00000294  00000+0  00000+0 0  9998
2 22314  14.1829 356.9840 0008573 179.8947 116.8933  1.00267710122507
UFO 2 (USA 95)          
1 22787U 93056A   26178.17034919  .00000127  00000+0  00000+0 0  9995
2 22787  11.8979   3.4992 0004517   8.6245 353.1115  1.00273417118657
USA 99 (MILSTAR-1 1)    
1 22988U 94009A   26177.95878075 -.00000196  00000+0  00000+0 0  9998
2 22988  17.6410  27.6046 0000623 193.6106 349.5289  0.98723549 33049
UFO 4 (USA 108)         
1 23467U 95003A   26177.77106738 -.00000019  00000+0  00000+0 0  9990
2 23467   9.6845  13.1521 0002935  79.8090 271.7120  1.00273487115044
TDRS 7                  
1 23613U 95035B   26177.98358463 -.00000237  00000+0  00000+0 0  9997
2 23613  13.3731 348.1220 0011792  82.1175 287.9606  1.00278693113356
USA 115 (MILSTAR-1 2)   
1 23712U 95060A   26178.05778920 -.00000208  00000+0  00000+0 0  9996
2 23712  14.0761   3.6754 0002208 134.3203  67.0239  1.00364128 32983
INMARSAT 3-F1           
1 23839U 96020A   26178.24057919 -.00000051  00000+0  00000+0 0  9998
2 23839  10.6212  46.5416 0003845  66.9929 142.6222  0.99978001110358
INMARSAT 3-F2           
1 24307U 96053A   26177.81900087 -.00000316  00000+0  00000+0 0  9994
2 24307   9.8779  53.8380 0006446  38.7833 257.1626  1.00000240109014
INMARSAT 3-F3           
1 24674U 96070A   26177.81460225  .00000127  00000+0  00000+0 0  9994
2 24674  10.3383  49.5607 0003078  43.2331 147.9520  0.99987068108001
USA 134                 
1 25019U 97065A   26178.14232719 -.00000062  00000+0  00000+0 0  9994
2 25019  12.7957  21.6482 0003010 347.7913 204.6483  1.00270149 33053
INMARSAT 3-F5           
1 25153U 98006B   26178.12753169 -.00000289  00000+0  00000+0 0  9995
2 25153   9.7148  53.1617 0004354  37.7990 176.2269  1.00272871103994
ABS-6                   
1 25924U 99053A   26178.13100160 -.00000108  00000+0  00000+0 0  9992
2 25924   0.0241 294.9578 0003655 167.3080  19.1489  1.00269759 97949
UFO 10 (USA 146)        
1 25967U 99063A   26177.95183700 -.00000186  00000+0  00000+0 0  9996
2 25967   9.8418  27.1602 0001573  66.8780 140.6831  1.00269152 97443
ASIASTAR                
1 26107U 00016A   26177.61517160 -.00000331  00000+0  00000+0 0  9999
2 26107   9.1511  58.0536 0004627  33.4231 149.7420  1.00272814 96015
USA 149 (DSP 20)        
1 26356U 00024A   26177.70425550  .00000095  00000+0  00000+0 0  9991
2 26356  13.1774  11.7852 0001635 324.8583  26.4945  1.00279914 33008
TDRS 8                  
1 26388U 00034A   26178.11009735 -.00000196  00000+0  00000+0 0  9999
2 26388  12.6987  31.2368 0004767  24.1441 344.2183  1.00275796 95281
NSS-11                  
1 26554U 00059A   26178.12821200  .00000034  00000+0  00000+0 0  9991
2 26554   2.1519  81.2827 0003135   8.8785  47.2322  1.00272779 41390
USA 153                 
1 26575U 00065A   26177.62103095 -.00000323  00000+0  00000+0 0  9992
2 26575  11.6404  35.3433 0003554  42.7897 194.5742  1.00280989 33025
AMC-6                   
1 26580U 00067A   26178.23446588  .00000100  00000+0  00000+0 0  9997
2 26580   0.1776  83.4222 0003977  22.4404 118.8425  1.00272874 93997
USA 157 (MILSTAR-2 2)   
1 26715U 01009A   26177.70720218  .00000111  00000+0  00000+0 0  9992
2 26715  11.5529  19.7060 0039436 178.2099 181.5215  1.00267328 33031
INTELSAT 902 (IS-902)   
1 26900U 01039A   26178.15466243 -.00000278  00000+0  00000+0 0  9991
2 26900   6.1414  71.6622 0004200  24.6956 184.4844  1.00271329 90790
USA 164 (MILSTAR-2 3)   
1 27168U 02001A   26177.24164124  .00000098  00000+0  00000+0 0  9999
2 27168  11.1903  21.8531 0099699   8.6688 349.7657  1.00270651 33042
INTELSAT 904 (IS-904)   
1 27380U 02007A   26178.17095506 -.00000221  00000+0  00000+0 0  9990
2 27380   6.9444  69.0666 0006526  11.3406 224.9345  1.00273021 51861
DIRECTV 5 (TEMPO 1)     
1 27426U 02023A   26178.14284719 -.00000050  00000+0  00000+0 0  9992
2 27426   4.9027  75.1906 0003549  24.8175 116.5711  1.00271616 88227
INTELSAT 905 (IS-905)   
1 27438U 02027A   26177.78103411  .00000098  00000+0  00000+0 0  9998
2 27438   6.7772  69.6863 0004138  26.4071 322.7696  1.00272022 51455
GALAXY 3C (G-3C)        
1 27445U 02030A   26178.19558528 -.00000145  00000+0  00000+0 0  9993
2 27445   3.7581  77.8503 0001986  25.2577 147.7750  1.00272390 46599
INTELSAT 906 (IS-906)   
1 27513U 02041A   26177.82086038  .00000019  00000+0  00000+0 0  9991
2 27513   5.8263  72.8033 0004205   7.3513 194.4364  1.00272159 87123
