OBJECT_NAME,OBJECT_ID,EPOCH,MEAN_MOTION,ECCENTRICITY,INCLINATION,RA_OF_ASC_NODE,ARG_OF_PERICENTER,MEAN_ANOMALY,EPHEMERIS_TYPE,CLASSIFICATION_TYPE,NORAD_CAT_ID,ELEMENT_SET_NO,REV_AT_EPOCH,BSTAR,MEAN_MOTION_DOT,MEAN_MOTION_DDOT
TDRS 3,1988-091B,2026-06-26T19:09:54.012384,1.00270713,.00376768,12.5942,340.9396,356.8926,175.7234,0,U,19548,999,12548,0,-.295E-5,0
FLTSATCOM 8 (USA 46),1989-077A,2026-06-26T21:42:12.053088,1.00272471,.0003919,12.4187,351.1047,59.9087,315.3372,0,U,20253,999,26066,0,-.364E-5,0
SKYNET 4C,1990-079A,2026-06-11T04:50:51.491904,1.00274127,.00024002,13.3424,349.8525,96.2313,279.5534,0,U,20776,999,13083,0,.132E-5,0
TDRS 5,1991-054B,2026-06-26T16:53:22.747200,1.00267874,.00062756,14.0697,353.7092,264.1146,102.7887,0,U,21639,999,12781,0,.85E-6,0
TDRS 6,1993-003B,2026-06-27T04:17:35.467008,1.00267710,.0008573,14.1829,356.9840,179.8947,116.8933,0,U,22314,999,12250,0,-.294E-5,0
UFO 2 (USA 95),1993-056A,2026-06-27T04:05:18.170016,1.00273417,.0004517,11.8979,3.4992,8.6245,353.1115,0,U,22787,999,11865,0,.127E-5,0
USA 99 (MILSTAR-1 1),1994-009A,2026-06-26T23:00:38.656800,0.98723549,.0000623,17.6410,27.6046,193.6106,349.5289,0,U,22988,999,3304,0,-.196E-5,0
UFO 4 (USA 108),1995-003A,2026-06-26T18:30:20.221632,1.00273487,.0002935,9.6845,13.1521,79.8090,271.7120,0,U,23467,999,11504,0,-.19E-6,0
TDRS 7,1995-035B,2026-06-26T23:36:21.712032,1.00278693,.0011792,13.3731,348.1220,82.1175,287.9606,0,U,23613,999,11335,0,-.237E-5,0
USA 115 (MILSTAR-1 2),1995-060A,2026-06-27T01:23:12.986880,1.00364128,.0002208,14.0761,3.6754,134.3203,67.0239,0,U,23712,999,3298,0,-.208E-5,0
INMARSAT 3-F1,1996-020A,2026-06-27T05:46:26.042016,0.99978001,.0003845,10.6212,46.5416,66.9929,142.6222,0,U,23839,999,11035,0,-.51E-6,0
INMARSAT 3-F2,1996-053A,2026-06-26T19:39:21.675168,1.00000240,.00064461,9.8779,53.8380,38.7833,257.1626,0,U,24307,999,10901,0,-.316E-5,0
INMARSAT 3-F3,1996-070A,2026-06-26T19:33:01.634400,0.99987068,.00030787,10.3383,49.5607,43.2331,147.9520,0,U,24674,999,10800,0,.127E-5,0
USA 134,1997-065A,2026-06-27T03:24:57.069216,1.00270149,.000301,12.7957,21.6482,347.7913,204.6483,0,U,25019,999,3305,0,-.62E-6,0
INMARSAT 3-F5,1998-006B,2026-06-27T03:03:38.738016,1.00272871,.0004354,9.7148,53.1617,37.7990,176.2269,0,U,25153,999,10399,0,-.289E-5,0
ABS-6,1999-053A,2026-06-27T03:08:38.538240,1.00269759,.0003655,0.0241,294.9578,167.3080,19.1489,0,U,25924,999,9794,0,-.108E-5,0
UFO 10 (USA 146),1999-063A,2026-06-26T22:50:38.716800,1.00269152,.0001573,9.8418,27.1602,66.8780,140.6831,0,U,25967,999,9744,0,-.186E-5,0
ASIASTAR,2000-016A,2026-06-26T14:45:50.826240,1.00272814,.0004627,9.1511,58.0536,33.4231,149.7420,0,U,26107,999,9601,0,-.331E-5,0
USA 149 (DSP 20),2000-024A,2026-06-26T16:54:07.675200,1.00279914,.00016357,13.1774,11.7852,324.8583,26.4945,0,U,26356,999,3300,0,.95E-6,0
TDRS 8,2000-034A,2026-06-27T02:38:32.411040,1.00275796,.0004767,12.6987,31.2368,24.1441,344.2183,0,U,26388,999,9528,0,-.196E-5,0
NSS-11,2000-059A,2026-06-27T03:04:37.516800,1.00272779,.0003135,2.1519,81.2827,8.8785,47.2322,0,U,26554,999,4139,0,.34E-6,0
USA 153,2000-065A,2026-06-26T14:54:17.074080,1.00280989,.00035548,11.6404,35.3433,42.7897,194.5742,0,U,26575,999,3302,0,-.323E-5,0
AMC-6,2000-067A,2026-06-27T05:37:37.852032,1.00272874,.0003977,0.1776,83.4222,22.4404,118.8425,0,U,26580,999,9399,0,.1E-5,0
USA 157 (MILSTAR-2 2),2001-009A,2026-06-26T16:58:22.268352,1.00267328,.00394366,11.5529,19.7060,178.2099,181.5215,0,U,26715,999,3303,0,.111E-5,0
INTELSAT 902 (IS-902),2001-039A,2026-06-27T03:42:42.833952,1.00271329,.00042,6.1414,71.6622,24.6956,184.4844,0,U,26900,999,9079,0,-.278E-5,0
USA 164 (MILSTAR-2 3),2002-001A,2026-06-26T05:47:57.803136,1.00270651,.0099699,11.1903,21.8531,8.6688,349.7657,0,U,27168,999,3304,0,.98E-6,0
INTELSAT 904 (IS-904),2002-007A,2026-06-27T04:06:10.517184,1.00273021,.0006526,6.9444,69.0666,11.3406,224.9345,0,U,27380,999,5186,0,-.221E-5,0
DIRECTV 5 (TEMPO 1),2002-023A,2026-06-27T03:25:41.997216,1.00271616,.0003549,4.9027,75.1906,24.8175,116.5711,0,U,27426,999,8822,0,-.5E-6,0
INTELSAT 905 (IS-905),2002-027A,2026-06-26T18:44:41.347104,1.00272022,.00041387,6.7772,69.6863,26.4071,322.7696,0,U,27438,999,5145,0,.98E-6,0
GALAXY 3C (G-3C),2002-030A,2026-06-27T04:41:38.568192,1.00272390,.0001986,3.7581,77.8503,25.2577,147.7750,0,U,27445,999,4659,0,-.145E-5,0
INTELSAT 906 (IS-906),2002-041A,2026-06-26T19:42:02.336832,1.00272159,.00042054,5.8263,72.8033,7.3513,194.4364,0,U,27513,999,8712,0,.19E-6,0
